OBJECT_NAME,OBJECT_ID,EPOCH,MEAN_MOTION,ECCENTRICITY,INCLINATION,RA_OF_ASC_NODE,ARG_OF_PERICENTER,MEAN_ANOMALY,EPHEMERIS_TYPE,CLASSIFICATION_TYPE,NORAD_CAT_ID,ELEMENT_SET_NO,REV_AT_EPOCH,BSTAR,MEAN_MOTION_DOT,MEAN_MOTION_DDOT
STARLINK-35434,2025-245N,2026-06-30T19:32:37.902912,15.31737629,.0001434,53.1574,117.9288,76.0694,284.0467,0,U,66246,999,3837,.78299E-3,.24039E-3,0
STARLINK-35481,2025-245P,2026-06-30T19:39:21.089376,15.31720643,.0001395,53.1601,117.9579,108.4239,251.6914,0,U,66247,999,3858,.13103E-2,.40543E-3,0
STARLINK-35416,2025-245Q,2026-06-30T03:32:51.961632,15.31711869,.00012738,53.1584,120.8783,94.9523,265.1624,0,U,66248,999,3842,.93195103E-3,.28676E-3,0
STARLINK-35304,2025-245R,2026-06-30T02:59:52.130688,15.31720252,.00014476,53.1588,121.4423,92.8397,267.2770,0,U,66249,999,3825,.58890679E-3,.17965E-3,0
STARLINK-35338,2025-245S,2026-06-30T03:26:08.238624,15.31727714,.00010892,53.1584,120.8489,105.4583,254.6539,0,U,66250,999,3838,.30790037E-3,.9209E-4,0
STARLINK-35485,2025-245T,2026-06-30T18:59:01.739040,15.31717517,.000137,53.1586,117.7816,98.0887,262.0269,0,U,66251,999,3836,.60848E-3,.18574E-3,0
STARLINK-35483,2025-245U,2026-06-30T20:05:23.838144,15.30207480,.0001305,53.1595,118.0654,86.7463,273.3687,0,U,66252,999,3853,.12823E-2,.37822E-3,0
STARLINK-35486,2025-245V,2026-06-30T03:46:18.602400,15.31704259,.0001236,53.1586,120.9356,85.6433,274.4709,0,U,66253,999,3827,.88376622E-3,.27163E-3,0
STARLINK-35488,2025-245W,2026-06-30T20:00:01.999008,15.31694605,.0001122,53.1589,117.9887,111.5499,276.1557,0,U,66254,999,592,.14389E-2,.44546E-3,0
STARLINK-35616,2025-245X,2026-06-30T19:27:34.244064,15.30210234,.0001309,53.1582,118.6120,81.6868,278.4281,0,U,66255,999,3857,.49103E-3,.14216E-3,0
STARLINK-35619,2025-245Y,2026-06-30T19:54:45.038880,15.30234023,.0001276,53.1593,118.0171,77.1535,282.9608,0,U,66256,999,3858,.85999E-3,.25224E-3,0
STARLINK-35615,2025-245Z,2026-06-30T02:49:15.757536,15.30212867,.0001191,53.1592,121.3944,99.2161,260.8974,0,U,66257,999,3847,-.12850804E-3,-.4165E-4,0
STARLINK-34650,2025-245AA,2026-06-30T07:36:00.331200,15.30209639,.0001226,53.1586,120.5027,85.7345,274.3796,0,U,66258,999,3850,.81250428E-3,.23789E-3,0
STARLINK-35529,2025-245AB,2026-06-30T02:45:57.051360,15.31717196,.00011064,53.1596,121.3812,96.2719,263.8409,0,U,66259,999,3847,.74211832E-3,.22746E-3,0
STARLINK-35420,2025-245AC,2026-06-30T03:39:35.185248,15.31708067,.00012469,53.1590,120.9016,95.2480,264.8664,0,U,66260,999,3848,.33797395E-3,.1014E-3,0
STARLINK-35536,2025-245AD,2026-06-30T18:52:18.245856,15.31718258,.0001404,53.1580,117.7495,98.1328,261.9833,0,U,66261,999,3858,.56297E-3,.17155E-3,0
STARLINK-35487,2025-245AE,2026-06-30T19:46:04.497888,15.31729640,.0001455,53.1600,117.9773,91.3127,268.8041,0,U,66262,999,3853,.12802E-2,.39611E-3,0
STARLINK-35801,2025-247A,2026-06-29T22:56:13.866720,15.34407014,.00009507,53.1599,27.7490,99.8086,260.3024,0,U,66265,999,3825,.64418369E-3,.21456E-3,0
STARLINK-35056,2025-247B,2026-06-30T20:00:01.999008,15.33585623,.0001202,53.1584,25.7985,84.4227,73.6232,0,U,66266,999,565,.40542E-3,.12999E-3,0
STARLINK-35550,2025-247C,2026-06-29T22:59:15.374976,15.34411314,.00010003,53.1597,27.7167,78.6079,281.5036,0,U,66267,999,3825,.62185864E-3,.207E-3,0
STARLINK-35069,2025-247D,2026-06-30T13:19:16.723488,15.34399884,.00007811,53.1603,26.5102,45.9708,314.1359,0,U,66268,999,3832,.56941613E-3,.18911E-3,0
STARLINK-34910,2025-247E,2026-06-30T13:30:41.192064,15.34407369,.0000805,53.1604,25.0949,86.6055,273.5040,0,U,66269,999,3834,.79112E-3,.26454E-3,0
STARLINK-35757,2025-247F,2026-06-29T23:11:23.160192,15.34404138,.00009437,53.1604,27.8151,67.9087,292.2016,0,U,66270,999,3830,.75659457E-3,.25276E-3,0
STARLINK-35745,2025-247G,2026-06-30T19:46:34.572000,15.34354932,.000175,53.1607,25.3414,130.1328,229.9828,0,U,66271,999,3841,.49293E-3,.16291E-3,0
STARLINK-35741,2025-247H,2026-06-30T14:22:03.215712,15.34426977,.0001225,53.1589,24.6490,95.8991,264.2151,0,U,66272,999,3840,.99015E-3,.33255E-3,0
STARLINK-35730,2025-247J,2026-06-29T21:31:31.429920,15.34411626,.00007499,53.1602,28.0900,120.7281,239.3796,0,U,66273,999,3829,.8835332E-3,.29604E-3,0
STARLINK-35760,2025-247K,2026-06-30T03:50:26.419200,15.34403508,.00015926,53.1581,28.3068,82.9639,277.1545,0,U,66274,999,3826,.57058298E-3,.18953E-3,0
STARLINK-35752,2025-247L,2026-06-29T23:39:20.086560,15.34430393,.0000993,53.1600,29.3499,83.4623,276.6492,0,U,66275,999,3823,.10051101E-2,.33769E-3,0
STARLINK-35742,2025-247M,2026-06-30T14:10:46.911936,15.34418975,.0000992,53.1588,26.7244,93.8698,266.2418,0,U,66276,999,3837,.11026E-2,.37082E-3,0
STARLINK-35708,2025-247N,2026-06-29T23:20:28.177440,15.34411915,.00009425,53.1604,27.8518,73.4763,286.6344,0,U,66277,999,3830,.12388582E-2,.41729E-3,0
