[
  {
    "name": "STARLINK-35434",
    "noradId": "66246",
    "line1": "1 66246U 25245N   26181.81432758  .00024039  00000+0  78299-3 0  9993",
    "line2": "2 66246  53.1574 117.9288 0001434  76.0694 284.0467 15.31737629 38377"
  },
  {
    "name": "STARLINK-35481",
    "noradId": "66247",
    "line1": "1 66247U 25245P   26181.81899409  .00040543  00000+0  13103-2 0  9994",
    "line2": "2 66247  53.1601 117.9579 0001395 108.4239 251.6914 15.31720643 38581"
  },
  {
    "name": "STARLINK-35416",
    "noradId": "66248",
    "line1": "1 66248U 25245Q   26181.14782363  .00028676  00000+0  93195-3 0  9994",
    "line2": "2 66248  53.1584 120.8783 0001273  94.9523 265.1624 15.31711869 38423"
  },
  {
    "name": "STARLINK-35304",
    "noradId": "66249",
    "line1": "1 66249U 25245R   26181.12490892  .00017965  00000+0  58891-3 0  9999",
    "line2": "2 66249  53.1588 121.4423 0001447  92.8397 267.2770 15.31720252 38257"
  },
  {
    "name": "STARLINK-35338",
    "noradId": "66250",
    "line1": "1 66250U 25245S   26181.14315091  .00009209  00000+0  30790-3 0  9990",
    "line2": "2 66250  53.1584 120.8489 0001089 105.4583 254.6539 15.31727714 38387"
  },
  {
    "name": "STARLINK-35485",
    "noradId": "66251",
    "line1": "1 66251U 25245T   26181.79099235  .00018574  00000+0  60848-3 0  9993",
    "line2": "2 66251  53.1586 117.7816 0001370  98.0887 262.0269 15.31717517 38367"
  },
  {
    "name": "STARLINK-35483",
    "noradId": "66252",
    "line1": "1 66252U 25245U   26181.83708146  .00037822  00000+0  12823-2 0  9993",
    "line2": "2 66252  53.1595 118.0654 0001305  86.7463 273.3687 15.30207480 38534"
  },
  {
    "name": "STARLINK-35486",
    "noradId": "66253",
    "line1": "1 66253U 25245V   26181.15715975  .00027163  00000+0  88377-3 0  9992",
    "line2": "2 66253  53.1586 120.9356 0001236  85.6433 274.4709 15.31704259 38279"
  },
  {
    "name": "STARLINK-35488",
    "noradId": "66254",
    "line1": "1 66254U 25245W   26181.83335647  .00044546  00000+0  14389-2 0  9997",
    "line2": "2 66254  53.1589 117.9887 0001122 111.5499 276.1557 15.31694605  5922"
  },
  {
    "name": "STARLINK-35616",
    "noradId": "66255",
    "line1": "1 66255U 25245X   26181.81081301  .00014216  00000+0  49103-3 0  9995",
    "line2": "2 66255  53.1582 118.6120 0001309  81.6868 278.4281 15.30210234 38575"
  },
  {
    "name": "STARLINK-35619",
    "noradId": "66256",
    "line1": "1 66256U 25245Y   26181.82968795  .00025224  00000+0  85999-3 0  9992",
    "line2": "2 66256  53.1593 118.0171 0001276  77.1535 282.9608 15.30234023 38588"
  },
  {
    "name": "STARLINK-35615",
    "noradId": "66257",
    "line1": "1 66257U 25245Z   26181.11754349 -.00004165  00000+0 -12851-3 0  9993",
    "line2": "2 66257  53.1592 121.3944 0001191  99.2161 260.8974 15.30212867 38470"
  },
  {
    "name": "STARLINK-34650",
    "noradId": "66258",
    "line1": "1 66258U 25245AA  26181.31667050  .00023789  00000+0  81250-3 0  9998",
    "line2": "2 66258  53.1586 120.5027 0001226  85.7345 274.3796 15.30209639 38509"
  },
  {
    "name": "STARLINK-35529",
    "noradId": "66259",
    "line1": "1 66259U 25245AB  26181.11524365  .00022746  00000+0  74212-3 0  9990",
    "line2": "2 66259  53.1596 121.3812 0001106  96.2719 263.8409 15.31717196 38474"
  },
  {
    "name": "STARLINK-35420",
    "noradId": "66260",
    "line1": "1 66260U 25245AC  26181.15249057  .00010140  00000+0  33797-3 0  9996",
    "line2": "2 66260  53.1590 120.9016 0001246  95.2480 264.8664 15.31708067 38482"
  },
  {
    "name": "STARLINK-35536",
    "noradId": "66261",
    "line1": "1 66261U 25245AD  26181.78632229  .00017155  00000+0  56297-3 0  9996",
    "line2": "2 66261  53.1580 117.7495 0001404  98.1328 261.9833 15.31718258 38586"
  },
  {
    "name": "STARLINK-35487",
    "noradId": "66262",
    "line1": "1 66262U 25245AE  26181.82366317  .00039611  00000+0  12802-2 0  9998",
    "line2": "2 66262  53.1600 117.9773 0001455  91.3127 268.8041 15.31729640 38538"
  },
  {
    "name": "STARLINK-35801",
    "noradId": "66265",
    "line1": "1 66265U 25247A   26180.95571605  .00021456  00000+0  64418-3 0  9993",
    "line2": "2 66265  53.1599  27.7490 0000950  99.8086 260.3024 15.34407014 38256"
  },
  {
    "name": "STARLINK-35056",
    "noradId": "66266",
    "line1": "1 66266U 25247B   26181.83335647  .00012999  00000+0  40542-3 0  9990",
    "line2": "2 66266  53.1584  25.7985 0001202  84.4227  73.6232 15.33585623  5652"
  },
  {
    "name": "STARLINK-35550",
    "noradId": "66267",
    "line1": "1 66267U 25247C   26180.95781684  .00020700  00000+0  62186-3 0  9996",
    "line2": "2 66267  53.1597  27.7167 0001000  78.6079 281.5036 15.34411314 38257"
  },
  {
    "name": "STARLINK-35069",
    "noradId": "66268",
    "line1": "1 66268U 25247D   26181.55505467  .00018911  00000+0  56942-3 0  9991",
    "line2": "2 66268  53.1603  26.5102 0000781  45.9708 314.1359 15.34399884 38329"
  },
  {
    "name": "STARLINK-34910",
    "noradId": "66269",
    "line1": "1 66269U 25247E   26181.56297676  .00026454  00000+0  79112-3 0  9998",
    "line2": "2 66269  53.1604  25.0949 0000805  86.6055 273.5040 15.34407369 38343"
  },
  {
    "name": "STARLINK-35757",
    "noradId": "66270",
    "line1": "1 66270U 25247F   26180.96624028  .00025276  00000+0  75659-3 0  9991",
    "line2": "2 66270  53.1604  27.8151 0000943  67.9087 292.2016 15.34404138 38308"
  },
  {
    "name": "STARLINK-35745",
    "noradId": "66271",
    "line1": "1 66271U 25247G   26181.82401125  .00016291  00000+0  49293-3 0  9991",
    "line2": "2 66271  53.1607  25.3414 0001750 130.1328 229.9828 15.34354932 38411"
  },
  {
    "name": "STARLINK-35741",
    "noradId": "66272",
    "line1": "1 66272U 25247H   26181.59864833  .00033255  00000+0  99015-3 0  9991",
    "line2": "2 66272  53.1589  24.6490 0001225  95.8991 264.2151 15.34426977 38406"
  },
  {
    "name": "STARLINK-35730",
    "noradId": "66273",
    "line1": "1 66273U 25247J   26180.89689155  .00029604  00000+0  88353-3 0  9992",
    "line2": "2 66273  53.1602  28.0900 0000749 120.7281 239.3796 15.34411626 38297"
  },
  {
    "name": "STARLINK-35760",
    "noradId": "66274",
    "line1": "1 66274U 25247K   26181.16002800  .00018953  00000+0  57058-3 0  9993",
    "line2": "2 66274  53.1581  28.3068 0001592  82.9639 277.1545 15.34403508 38264"
  },
  {
    "name": "STARLINK-35752",
    "noradId": "66275",
    "line1": "1 66275U 25247L   26180.98564915  .00033769  00000+0  10051-2 0  9996",
    "line2": "2 66275  53.1600  29.3499 0000993  83.4623 276.6492 15.34430393 38233"
  },
  {
    "name": "STARLINK-35742",
    "noradId": "66276",
    "line1": "1 66276U 25247M   26181.59082074  .00037082  00000+0  11026-2 0  9991",
    "line2": "2 66276  53.1588  26.7244 0000992  93.8698 266.2418 15.34418975 38374"
  },
  {
    "name": "STARLINK-35708",
    "noradId": "66277",
    "line1": "1 66277U 25247N   26180.97254835  .00041729  00000+0  12389-2 0  9995",
    "line2": "2 66277  53.1604  27.8518 0000942  73.4763 286.6344 15.34411915 38306"
  }
]